STARLINK-31802          
1 59636U 24082F   26067.60755837  .00000589  00000+0  30949-4 0  9997
2 59636  42.9999 146.1577 0001721 175.8159 184.2708 15.27580835104640
TRANSPORTER-12 OBJECT BT
1 62674U 25009BT  26068.71416991  .00013824  00000+0  51029-3 0  9998
2 62674  97.4094 151.5992 0003682 313.5044  46.5889 15.27872239121360
